*******************************************************************************
Ephemeris / WWW_USER Mon Mar 26 19:44:19 2018 Pasadena, USA      / Horizons    
*******************************************************************************
Target body name: Thebe (514)                     {source: jup310}
Center body name: Jupiter Barycenter (5)          {source: DE431mx}
Center-site name: BODY CENTER
*******************************************************************************
Start time      : A.D. 2000-Jan-01 00:00:00.0000 TDB
Stop  time      : A.D. 2001-Jan-01 00:00:00.0000 TDB
Step-size       : 7200 minutes
*******************************************************************************
Center geodetic : 0.00000000,0.00000000,0.0000000 {E-lon(deg),Lat(deg),Alt(km)}
Center cylindric: 0.00000000,0.00000000,0.0000000 {E-lon(deg),Dxy(km),Dz(km)}
Center radii    : (undefined)                                                  
Output units    : AU-D                                                         
Output type     : GEOMETRIC cartesian states
Output format   : 2 (position and velocity)
Reference frame : ICRF/J2000.0                                                 
Coordinate systm: Ecliptic and Mean Equinox of Reference Epoch                 
*******************************************************************************
JDTDB
   X     Y     Z
   VX    VY    VZ
*******************************************************************************
$$SOE
2451754.500000000 = A.D. 2000-Jul-29 00:00:00.0000 TDB 
   1.166480069171132E-03  9.450283598459140E-04  3.267360602989303E-05
  -8.453414203564057E-03  1.070851896770644E-02  4.529556017754004E-04
2451759.500000000 = A.D. 2000-Aug-03 00:00:00.0000 TDB 
  -1.477947454026855E-03 -1.042961405327386E-04  5.992526671702155E-07
   1.212030285196756E-03 -1.376811824549499E-02 -5.718079997227429E-04
2451764.500000000 = A.D. 2000-Aug-08 00:00:00.0000 TDB 
   1.345962911137030E-03 -5.923016357335634E-04 -2.906435170433004E-05
   5.804047662459400E-03  1.266624274793183E-02  5.310116737301659E-04
2451769.500000000 = A.D. 2000-Aug-13 00:00:00.0000 TDB 
  -8.073836839030496E-04  1.272936378457531E-03  5.860203943849914E-05
  -1.143683753344822E-02 -7.336948782059194E-03 -3.095003239847938E-04
2451774.500000000 = A.D. 2000-Aug-18 00:00:00.0000 TDB 
   2.275574499870254E-05 -1.456030349144933E-03 -6.795415988562239E-05
   1.404496937043744E-02  3.007123229195230E-04  4.127273056298244E-06
2451779.500000000 = A.D. 2000-Aug-23 00:00:00.0000 TDB 
   7.113289210118854E-04  1.316463320692810E-03  6.394244559062529E-05
  -1.194693241491430E-02  6.652521248942581E-03  3.144514366826920E-04
2451784.500000000 = A.D. 2000-Aug-28 00:00:00.0000 TDB 
  -1.328416038354424E-03 -6.628464954295750E-04 -3.558472633722607E-05
   6.380100958365145E-03 -1.222004038448141E-02 -5.948416617378891E-04
2451789.500000000 = A.D. 2000-Sep-02 00:00:00.0000 TDB 
   1.465658145063459E-03 -3.518490782689994E-05  3.419481295078758E-06
   5.286120241084642E-04  1.394343079964949E-02  7.128893915002586E-04
2451794.500000000 = A.D. 2000-Sep-07 00:00:00.0000 TDB 
  -1.238162661977120E-03  8.605267549729591E-04  3.829817375608740E-05
  -7.719973971344434E-03 -1.115550550738576E-02 -6.216157434732519E-04
2451799.500000000 = A.D. 2000-Sep-12 00:00:00.0000 TDB 
   5.742144884739775E-04 -1.341523506678376E-03 -6.699708444135198E-05
   1.286067369740568E-02  5.605075458059644E-03  3.877430225528474E-04
2451804.500000000 = A.D. 2000-Sep-17 00:00:00.0000 TDB 
   1.468701375342966E-04  1.486720349544231E-03  8.111399203161767E-05
  -1.361925268382567E-02  1.566795144723394E-03 -3.758576156017370E-05
2451809.500000000 = A.D. 2000-Sep-22 00:00:00.0000 TDB 
  -9.747771730110806E-04 -1.123290320665678E-03 -7.151012266417432E-05
   1.055479156873355E-02 -8.825579252171596E-03 -3.637129514075777E-04
2451814.500000000 = A.D. 2000-Sep-27 00:00:00.0000 TDB 
   1.368096054513578E-03  5.194187296319190E-04  4.598732193737622E-05
  -4.841569536464450E-03  1.311878924131419E-02  6.529687778673633E-04
2451819.500000000 = A.D. 2000-Oct-02 00:00:00.0000 TDB 
  -1.476174920502475E-03  3.161605910062278E-04 -4.791440726994103E-06
  -2.819153930913469E-03 -1.325850141258925E-02 -7.661441683856299E-04
2451824.500000000 = A.D. 2000-Oct-07 00:00:00.0000 TDB 
   1.040360738603236E-03 -1.025570845817770E-03 -3.820504131417114E-05
   9.736897529763014E-03  1.005325006942557E-02  7.126081403219314E-04
2451829.500000000 = A.D. 2000-Oct-12 00:00:00.0000 TDB 
  -4.347211934502029E-04  1.423958025223029E-03  6.877599870821922E-05
  -1.320401227012692E-02 -3.773248385673751E-03 -4.542806849745943E-04
2451834.500000000 = A.D. 2000-Oct-17 00:00:00.0000 TDB 
  -4.683201316839543E-04 -1.414381461034431E-03 -8.544232355481528E-05
   1.310178774632749E-02 -4.106891272615157E-03  5.367086980156415E-05
2451839.500000000 = A.D. 2000-Oct-22 00:00:00.0000 TDB 
   1.065176411969201E-03  9.983208041097007E-04  7.683246353335478E-05
  -9.494063374021307E-03  1.031381979487953E-02  3.281580804856230E-04
2451844.500000000 = A.D. 2000-Oct-27 00:00:00.0000 TDB 
  -1.481965672419102E-03 -2.803603897222374E-04 -5.081422216997461E-05
   2.513076180547331E-03 -1.332703469514871E-02 -6.285370896938690E-04
2451849.500000000 = A.D. 2000-Nov-01 00:00:00.0000 TDB 
   1.354871317232893E-03 -5.581402880685968E-04  7.211014275288938E-06
   5.155502213745940E-03  1.298200656831500E-02  7.922453083687495E-04
2451854.500000000 = A.D. 2000-Nov-06 00:00:00.0000 TDB 
  -9.474498525541159E-04  1.148401754351130E-03  3.033319939141337E-05
  -1.076643961335386E-02 -8.562275639494953E-03 -7.204156892805869E-04
2451859.500000000 = A.D. 2000-Nov-11 00:00:00.0000 TDB 
   1.125944910823633E-04 -1.490136077086188E-03 -6.792248617860218E-05
   1.363594587230756E-02  1.221740736572945E-03  4.549822349378326E-04
2451864.500000000 = A.D. 2000-Nov-16 00:00:00.0000 TDB 
   6.078667841260867E-04  1.323856801075956E-03  7.948623130734378E-05
  -1.271726536860636E-02  5.946670661414979E-03 -1.106074216483808E-04
2451869.500000000 = A.D. 2000-Nov-21 00:00:00.0000 TDB 
  -1.256663734203444E-03 -8.304311099470783E-04 -7.617862751019978E-05
   7.455583528537849E-03 -1.135058976160988E-02 -2.708479208985552E-04
2451874.500000000 = A.D. 2000-Nov-26 00:00:00.0000 TDB 
   1.466423801995755E-03 -1.945669301987784E-06  4.698339430228450E-05
  -1.884416478942631E-04  1.395027789821913E-02  5.879735357275906E-04
2451879.500000000 = A.D. 2000-Dec-01 00:00:00.0000 TDB 
  -1.310271348365846E-03  6.950128134701973E-04 -1.462462456064720E-05
  -6.673083793191336E-03 -1.206748635558256E-02 -7.091465137888616E-04
2451884.500000000 = A.D. 2000-Dec-06 00:00:00.0000 TDB 
   6.798629768349511E-04 -1.335822129860135E-03 -2.912670769834224E-05
   1.208664530186419E-02  6.349483079741276E-03  6.464417927582345E-04
2451889.500000000 = A.D. 2000-Dec-11 00:00:00.0000 TDB 
   6.034918346787968E-05  1.457097327383046E-03  5.541846329718649E-05
  -1.403039010338004E-02  6.681100871968289E-04 -4.436287882836956E-04
2451894.500000000 = A.D. 2000-Dec-16 00:00:00.0000 TDB 
  -8.351825291467501E-04 -1.253240405429386E-03 -7.121216600446233E-05
   1.125647573664732E-02 -7.620883811389987E-03  1.114537607101316E-04
2451899.500000000 = A.D. 2000-Dec-21 00:00:00.0000 TDB 
   1.360340950775948E-03  5.558993213743185E-04  6.309719776666833E-05
  -5.482387384147898E-03  1.280835774647985E-02  2.362763752521681E-04
2451904.500000000 = A.D. 2000-Dec-26 00:00:00.0000 TDB 
  -1.473262496826243E-03  1.427178115830747E-04 -4.365160000567297E-05
  -1.549683555330750E-03 -1.374895436086914E-02 -4.718452532677749E-04
2451909.500000000 = A.D. 2000-Dec-31 00:00:00.0000 TDB 
   1.144304594072560E-03 -9.728749948042730E-04  8.591786121944172E-06
   8.696864747747737E-03  1.049433316390223E-02  5.796761117537189E-04
